CARTOSAT-3
1 44804U 19081A   23196.35840878  .00005378  00000+0  25694-3 0  9994
2 44804  97.3450 253.5493 0009838 278.3489  81.6631 15.19397374201298